CCSDS_OMM_VERS = 2.0
CREATION_DATE  = 
ORIGINATOR     = 

OBJECT_NAME    = STARLINK-36805
OBJECT_ID      = 2026-044R
CENTER_NAME    = EARTH
REF_FRAME      = TEME
TIME_SYSTEM    = UTC
MEAN_ELEMENT_THEORY = SGP/SGP4

EPOCH          = 2026-04-03T06:00:00.999648
MEAN_MOTION    = 15.53091774
ECCENTRICITY   = .00016097
INCLINATION    = 97.2852
RA_OF_ASC_NODE = 54.5325
ARG_OF_PERICENTER = 107.3793
MEAN_ANOMALY   = 195.9875

EPHEMERIS_TYPE = 0
CLASSIFICATION_TYPE = U
NORAD_CAT_ID   = 68116
ELEMENT_SET_NO = 999
REV_AT_EPOCH   = 535
BSTAR          = -.33567114E-1
MEAN_MOTION_DOT = -.1856451E-1
MEAN_MOTION_DDOT = 0

CCSDS_OMM_VERS = 2.0
CREATION_DATE  = 
ORIGINATOR     = 

OBJECT_NAME    = STARLINK-36844
OBJECT_ID      = 2026-044S
CENTER_NAME    = EARTH
REF_FRAME      = TEME
TIME_SYSTEM    = UTC
MEAN_ELEMENT_THEORY = SGP/SGP4

EPOCH          = 2026-04-03T06:00:00.999648
MEAN_MOTION    = 15.55157341
ECCENTRICITY   = .00013821
INCLINATION    = 97.2853
RA_OF_ASC_NODE = 54.5514
ARG_OF_PERICENTER = 105.7000
MEAN_ANOMALY   = 242.7902

EPHEMERIS_TYPE = 0
CLASSIFICATION_TYPE = U
NORAD_CAT_ID   = 68117
ELEMENT_SET_NO = 999
REV_AT_EPOCH   = 530
BSTAR          = -.31122503E-1
MEAN_MOTION_DOT = -.1856415E-1
MEAN_MOTION_DDOT = 0

CCSDS_OMM_VERS = 2.0
CREATION_DATE  = 
ORIGINATOR     = 

OBJECT_NAME    = STARLINK-36789
OBJECT_ID      = 2026-044T
CENTER_NAME    = EARTH
REF_FRAME      = TEME
TIME_SYSTEM    = UTC
MEAN_ELEMENT_THEORY = SGP/SGP4

EPOCH          = 2026-04-03T06:00:00.999648
MEAN_MOTION    = 15.55997037
ECCENTRICITY   = .00014389
INCLINATION    = 97.2856
RA_OF_ASC_NODE = 54.5591
ARG_OF_PERICENTER = 103.4305
MEAN_ANOMALY   = 260.9865

EPHEMERIS_TYPE = 0
CLASSIFICATION_TYPE = U
NORAD_CAT_ID   = 68118
ELEMENT_SET_NO = 999
REV_AT_EPOCH   = 530
BSTAR          = -.30430545E-1
MEAN_MOTION_DOT = -.1870682E-1
MEAN_MOTION_DDOT = 0

CCSDS_OMM_VERS = 2.0
CREATION_DATE  = 
ORIGINATOR     = 

OBJECT_NAME    = STARLINK-36850
OBJECT_ID      = 2026-044U
CENTER_NAME    = EARTH
REF_FRAME      = TEME
TIME_SYSTEM    = UTC
MEAN_ELEMENT_THEORY = SGP/SGP4

EPOCH          = 2026-04-03T06:00:00.999648
MEAN_MOTION    = 15.56010134
ECCENTRICITY   = .00014238
INCLINATION    = 97.2856
RA_OF_ASC_NODE = 54.5603
ARG_OF_PERICENTER = 110.1717
MEAN_ANOMALY   = 256.4633

EPHEMERIS_TYPE = 0
CLASSIFICATION_TYPE = U
NORAD_CAT_ID   = 68119
ELEMENT_SET_NO = 999
REV_AT_EPOCH   = 530
BSTAR          = -.30410541E-1
MEAN_MOTION_DOT = -.187039E-1
MEAN_MOTION_DDOT = 0

CCSDS_OMM_VERS = 2.0
CREATION_DATE  = 
ORIGINATOR     = 

OBJECT_NAME    = STARLINK-36868
OBJECT_ID      = 2026-044V
CENTER_NAME    = EARTH
REF_FRAME      = TEME
TIME_SYSTEM    = UTC
MEAN_ELEMENT_THEORY = SGP/SGP4

EPOCH          = 2026-04-03T06:00:00.999648
MEAN_MOTION    = 15.56554397
ECCENTRICITY   = .00014002
INCLINATION    = 97.2856
RA_OF_ASC_NODE = 54.5675
ARG_OF_PERICENTER = 101.5513
MEAN_ANOMALY   = 281.9105

EPHEMERIS_TYPE = 0
CLASSIFICATION_TYPE = U
NORAD_CAT_ID   = 68120
ELEMENT_SET_NO = 999
REV_AT_EPOCH   = 530
BSTAR          = -.29695522E-1
MEAN_MOTION_DOT = -.1864553E-1
MEAN_MOTION_DDOT = 0

CCSDS_OMM_VERS = 2.0
CREATION_DATE  = 
ORIGINATOR     = 

OBJECT_NAME    = STARLINK-36855
OBJECT_ID      = 2026-044W
CENTER_NAME    = EARTH
REF_FRAME      = TEME
TIME_SYSTEM    = UTC
MEAN_ELEMENT_THEORY = SGP/SGP4

EPOCH          = 2026-04-03T06:00:00.999648
MEAN_MOTION    = 15.55103322
ECCENTRICITY   = .00014225
INCLINATION    = 97.2854
RA_OF_ASC_NODE = 54.5586
ARG_OF_PERICENTER = 98.1501
MEAN_ANOMALY   = 265.4677

EPHEMERIS_TYPE = 0
CLASSIFICATION_TYPE = U
NORAD_CAT_ID   = 68121
ELEMENT_SET_NO = 999
REV_AT_EPOCH   = 530
BSTAR          = -.31088954E-1
MEAN_MOTION_DOT = -.1851391E-1
MEAN_MOTION_DDOT = 0

CCSDS_OMM_VERS = 2.0
CREATION_DATE  = 
ORIGINATOR     = 

OBJECT_NAME    = STARLINK-36366
OBJECT_ID      = 2026-044X
CENTER_NAME    = EARTH
REF_FRAME      = TEME
TIME_SYSTEM    = UTC
MEAN_ELEMENT_THEORY = SGP/SGP4

EPOCH          = 2026-04-03T06:00:00.999648
MEAN_MOTION    = 15.55412295
ECCENTRICITY   = .00013144
INCLINATION    = 97.2856
RA_OF_ASC_NODE = 54.5614
ARG_OF_PERICENTER = 104.5499
MEAN_ANOMALY   = 266.2655

EPHEMERIS_TYPE = 0
CLASSIFICATION_TYPE = U
NORAD_CAT_ID   = 68122
ELEMENT_SET_NO = 999
REV_AT_EPOCH   = 535
BSTAR          = -.30855873E-1
MEAN_MOTION_DOT = -.1857722E-1
MEAN_MOTION_DDOT = 0

CCSDS_OMM_VERS = 2.0
CREATION_DATE  = 
ORIGINATOR     = 

OBJECT_NAME    = STARLINK-36922
OBJECT_ID      = 2026-044Y
CENTER_NAME    = EARTH
REF_FRAME      = TEME
TIME_SYSTEM    = UTC
MEAN_ELEMENT_THEORY = SGP/SGP4

EPOCH          = 2026-04-03T06:00:00.999648
MEAN_MOTION    = 15.55922727
ECCENTRICITY   = .00016255
INCLINATION    = 97.2855
RA_OF_ASC_NODE = 54.5720
ARG_OF_PERICENTER = 101.3042
MEAN_ANOMALY   = 291.9435

EPHEMERIS_TYPE = 0
CLASSIFICATION_TYPE = U
NORAD_CAT_ID   = 68123
ELEMENT_SET_NO = 999
REV_AT_EPOCH   = 535
BSTAR          = -.30431112E-1
MEAN_MOTION_DOT = -.1866262E-1
MEAN_MOTION_DDOT = 0

CCSDS_OMM_VERS = 2.0
CREATION_DATE  = 
ORIGINATOR     = 

OBJECT_NAME    = STARLINK-36938
OBJECT_ID      = 2026-044Z
CENTER_NAME    = EARTH
REF_FRAME      = TEME
TIME_SYSTEM    = UTC
MEAN_ELEMENT_THEORY = SGP/SGP4

EPOCH          = 2026-04-03T03:09:32.461344
MEAN_MOTION    = 15.75297936
ECCENTRICITY   = .0000979
INCLINATION    = 97.2870
RA_OF_ASC_NODE = 54.5675
ARG_OF_PERICENTER = 91.9175
MEAN_ANOMALY   = 268.2203

EPHEMERIS_TYPE = 0
CLASSIFICATION_TYPE = U
NORAD_CAT_ID   = 68124
ELEMENT_SET_NO = 999
REV_AT_EPOCH   = 533
BSTAR          = .23986821E-2
MEAN_MOTION_DOT = .375607E-2
MEAN_MOTION_DDOT = 0

CCSDS_OMM_VERS = 2.0
CREATION_DATE  = 
ORIGINATOR     = 

OBJECT_NAME    = STARLINK-36839
OBJECT_ID      = 2026-044AA
CENTER_NAME    = EARTH
REF_FRAME      = TEME
TIME_SYSTEM    = UTC
MEAN_ELEMENT_THEORY = SGP/SGP4

EPOCH          = 2026-04-03T06:00:00.999648
MEAN_MOTION    = 15.55969243
ECCENTRICITY   = .00016154
INCLINATION    = 97.2856
RA_OF_ASC_NODE = 54.5697
ARG_OF_PERICENTER = 97.0869
MEAN_ANOMALY   = 290.8192

EPHEMERIS_TYPE = 0
CLASSIFICATION_TYPE = U
NORAD_CAT_ID   = 68125
ELEMENT_SET_NO = 999
REV_AT_EPOCH   = 530
BSTAR          = -.30522566E-1
MEAN_MOTION_DOT = -.1874087E-1
MEAN_MOTION_DDOT = 0

CCSDS_OMM_VERS = 2.0
CREATION_DATE  = 
ORIGINATOR     = 

OBJECT_NAME    = ECHOSTAR 25
OBJECT_ID      = 2026-045A
CENTER_NAME    = EARTH
REF_FRAME      = TEME
TIME_SYSTEM    = UTC
MEAN_ELEMENT_THEORY = SGP/SGP4

EPOCH          = 2026-04-03T05:22:13.512864
MEAN_MOTION    = 1.00270499
ECCENTRICITY   = .00015956
INCLINATION    = 0.0388
RA_OF_ASC_NODE = 280.2940
ARG_OF_PERICENTER = 152.2360
MEAN_ANOMALY   = 70.7314

EPHEMERIS_TYPE = 0
CLASSIFICATION_TYPE = U
NORAD_CAT_ID   = 68126
ELEMENT_SET_NO = 999
REV_AT_EPOCH   = 24
BSTAR          = 0
MEAN_MOTION_DOT = .55E-6
MEAN_MOTION_DDOT = 0

CCSDS_OMM_VERS = 2.0
CREATION_DATE  = 
ORIGINATOR     = 

OBJECT_NAME    = ICOR SV
OBJECT_ID      = 2026-046A
CENTER_NAME    = EARTH
REF_FRAME      = TEME
TIME_SYSTEM    = UTC
MEAN_ELEMENT_THEORY = SGP/SGP4

EPOCH          = 2026-04-03T02:04:42.818016
MEAN_MOTION    = 15.99402782
ECCENTRICITY   = .00907112
INCLINATION    = 123.0723
RA_OF_ASC_NODE = 317.4998
ARG_OF_PERICENTER = 233.4970
MEAN_ANOMALY   = 125.7725

EPHEMERIS_TYPE = 0
CLASSIFICATION_TYPE = U
NORAD_CAT_ID   = 68127
ELEMENT_SET_NO = 999
REV_AT_EPOCH   = 348
BSTAR          = .75989516E-3
MEAN_MOTION_DOT = .619867E-2
MEAN_MOTION_DDOT = .12252523E-4

CCSDS_OMM_VERS = 2.0
CREATION_DATE  = 
ORIGINATOR     = 

OBJECT_NAME    = FIREFLY ALPHA R/B
OBJECT_ID      = 2026-046B
CENTER_NAME    = EARTH
REF_FRAME      = TEME
TIME_SYSTEM    = UTC
MEAN_ELEMENT_THEORY = SGP/SGP4

EPOCH          = 2026-04-03T05:31:18.538752
MEAN_MOTION    = 15.57769827
ECCENTRICITY   = .00171537
INCLINATION    = 123.0923
RA_OF_ASC_NODE = 313.2857
ARG_OF_PERICENTER = 28.1031
MEAN_ANOMALY   = 332.0953

EPHEMERIS_TYPE = 0
CLASSIFICATION_TYPE = U
NORAD_CAT_ID   = 68128
ELEMENT_SET_NO = 999
REV_AT_EPOCH   = 346
BSTAR          = .72862717E-3
MEAN_MOTION_DOT = .55313E-3
MEAN_MOTION_DDOT = 0

CCSDS_OMM_VERS = 2.0
CREATION_DATE  = 
ORIGINATOR     = 

OBJECT_NAME    = GUOWANG GROUP 20 OBJECT A
OBJECT_ID      = 2026-047A
CENTER_NAME    = EARTH
REF_FRAME      = TEME
TIME_SYSTEM    = UTC
MEAN_ELEMENT_THEORY = SGP/SGP4

EPOCH          = 2026-04-02T17:28:37.836480
MEAN_MOTION    = 13.85294462
ECCENTRICITY   = .00005962
INCLINATION    = 50.0050
RA_OF_ASC_NODE = 333.2500
ARG_OF_PERICENTER = 153.6332
MEAN_ANOMALY   = 206.4595

EPHEMERIS_TYPE = 0
CLASSIFICATION_TYPE = U
NORAD_CAT_ID   = 68129
ELEMENT_SET_NO = 999
REV_AT_EPOCH   = 293
BSTAR          = .50251468E-4
MEAN_MOTION_DOT = -.87E-6
MEAN_MOTION_DDOT = 0

CCSDS_OMM_VERS = 2.0
CREATION_DATE  = 
ORIGINATOR     = 

OBJECT_NAME    = GUOWANG GROUP 20 OBJECT B
OBJECT_ID      = 2026-047B
CENTER_NAME    = EARTH
REF_FRAME      = TEME
TIME_SYSTEM    = UTC
MEAN_ELEMENT_THEORY = SGP/SGP4

EPOCH          = 2026-04-01T05:04:40.456704
MEAN_MOTION    = 13.87767313
ECCENTRICITY   = .00001339
INCLINATION    = 50.0054
RA_OF_ASC_NODE = 339.2252
ARG_OF_PERICENTER = 185.6237
MEAN_ANOMALY   = 174.4659

EPHEMERIS_TYPE = 0
CLASSIFICATION_TYPE = U
NORAD_CAT_ID   = 68130
ELEMENT_SET_NO = 999
REV_AT_EPOCH   = 271
BSTAR          = .69791497E-4
MEAN_MOTION_DOT = -.62E-6
MEAN_MOTION_DDOT = 0

